NORAD_CAT_ID,OBJECT_NAME,OBJECT_TYPE,EPOCH,MEAN_MOTION,ECCENTRICITY,INCLINATION,RA_OF_ASC_NODE,ARG_OF_PERICENTER,MEAN_ANOMALY,BSTAR,MEAN_MOTION_DOT,MEAN_MOTION_DDOT,TLE_LINE0,TLE_LINE1,TLE_LINE2,SEMIMAJOR_AXIS,PERIOD,APOGEE,PERIGEE,DECAYED
52111.0,STARLINK-3708,PAYLOAD,2024-08-05 03:50:21,15.08849818,0.0001292,53.2169,169.7133,90.3216,269.7924,0.0002195,3.208e-05,0.0,0 STARLINK-3708,1 52111U 22029Z   24218.15996570  .00003208  00000-0  21950-3 0  9997,2 52111  53.2169 169.7133 0001292  90.3216 269.7924 15.08849818132998,6917.85,95.437,540.609,538.822,0.0
52111.0,STARLINK-3708,PAYLOAD,2024-08-05 13:22:41,15.08834705,0.0001347,53.2162,167.9213,89.3002,270.8145,4.3747e-05,4.08e-06,0.0,0 STARLINK-3708,1 52111U 22029Z   24218.55741902  .00000408  00000-0  43747-4 0  9996,2 52111  53.2162 167.9213 0001347  89.3002 270.8145 15.08834705133057,6917.897,95.438,540.693,538.83,0.0
52111.0,STARLINK-3708,PAYLOAD,2024-08-06 03:41:10,15.08821628,0.000143,53.2169,165.2533,109.5435,250.5712,-9.6467e-05,-1.822e-05,0.0,0 STARLINK-3708,1 52111U 22029Z   24219.15359890 -.00001822  00000-0 -96467-4 0  9994,2 52111  53.2169 165.2533 0001430 109.5435 250.5712 15.08821628133143,6917.937,95.439,540.791,538.812,0.0
52111.0,STARLINK-3708,PAYLOAD,2024-08-06 13:13:30,15.0881921,0.0001266,53.2163,163.4673,103.9041,256.2092,-0.00010401,-1.942e-05,0.0,0 STARLINK-3708,1 52111U 22029Z   24219.55104508 -.00001942  00000-0 -10401-3 0  9998,2 52111  53.2163 163.4673 0001266 103.9041 256.2092 15.08819210133205,6917.944,95.439,540.685,538.933,0.0
52111.0,STARLINK-3708,PAYLOAD,2024-08-06 19:35:02,15.08826598,0.0001186,53.2147,162.2745,91.6327,268.4801,-0.00017646,-3.094e-05,0.0,0 STARLINK-3708,1 52111U 22029Z   24219.81600690 -.00003094  00000-0 -17646-3 0  9998,2 52111  53.2147 162.2745 0001186  91.6327 268.4801 15.08826598133249,6917.921,95.438,540.607,538.966,0.0
52111.0,STARLINK-3708,PAYLOAD,2024-08-07 01:56:35,15.08834472,0.0001167,53.2154,161.0873,102.3617,257.7506,-0.00010022,-1.882e-05,0.0,0 STARLINK-3708,1 52111U 22029Z   24220.08096095 -.00001882  00000-0 -10022-3 0  9991,2 52111  53.2154 161.0873 0001167 102.3617 257.7506 15.08834472133284,6917.897,95.438,540.57,538.955,0.0
52111.0,STARLINK-3708,PAYLOAD,2024-08-08 04:58:06,15.08875628,0.0001141,53.2148,156.0319,129.513,230.5963,0.00080024,0.00012483,0.0,0 STARLINK-3708,1 52111U 22029Z   24221.20701692  .00012483  00000-0  80024-3 0  9998,2 52111  53.2148 156.0319 0001141 129.5130 230.5963 15.08875628133452,6917.771,95.435,540.426,538.847,0.0
52111.0,STARLINK-3708,PAYLOAD,2024-08-09 04:48:53,15.0886278,0.0001193,53.2147,151.5668,125.0237,235.0867,0.00027418,4.081e-05,0.0,0 STARLINK-3708,1 52111U 22029Z   24222.20061847  .00004081  00000-0  27418-3 0  9993,2 52111  53.2147 151.5668 0001193 125.0237 235.0867 15.08862780133609,6917.811,95.436,540.501,538.85,0.0
52111.0,STARLINK-3708,PAYLOAD,2024-08-09 12:45:49,15.08841898,0.0001655,53.2144,150.0854,78.6433,281.4745,-0.00021622,-3.728e-05,0.0,0 STARLINK-3708,1 52111U 22029Z   24222.53182400 -.00003728  00000-0 -21622-3 0  9998,2 52111  53.2144 150.0854 0001655  78.6433 281.4745 15.08841898133653,6917.875,95.437,540.884,538.595,0.0
52111.0,STARLINK-3708,PAYLOAD,2024-08-10 04:39:40,15.08850298,0.0001314,53.2161,147.1027,117.0847,243.0279,0.00026027,3.858e-05,0.0,0 STARLINK-3708,1 52111U 22029Z   24223.19421490  .00003858  00000-0  26027-3 0  9992,2 52111  53.2161 147.1027 0001314 117.0847 243.0279 15.08850298133751,6917.849,95.437,540.623,538.805,0.0
52111.0,STARLINK-3708,PAYLOAD,2024-08-11 01:19:41,15.08850312,0.0001399,53.2144,143.2406,105.6642,254.4504,0.00041209,6.278e-05,0.0,0 STARLINK-3708,1 52111U 22029Z   24224.05534086  .00006278  00000-0  41209-3 0  9992,2 52111  53.2144 143.2406 0001399 105.6642 254.4504 15.08850312133887,6917.849,95.437,540.682,538.746,0.0
52111.0,STARLINK-3708,PAYLOAD,2024-08-11 18:48:56,15.08845685,0.0001738,53.2161,139.9681,102.4506,257.668,0.00026356,3.91e-05,0.0,0 STARLINK-3708,1 52111U 22029Z   24224.78398509  .00003910  00000-0  26356-3 0  9996,2 52111  53.2161 139.9681 0001738 102.4506 257.6680 15.08845685133993,6917.863,95.437,540.93,538.526,0.0
52111.0,STARLINK-3708,PAYLOAD,2024-08-11 21:59:42,15.08848846,0.0001571,53.215,139.3791,90.9692,269.148,0.00045508,6.964e-05,0.0,0 STARLINK-3708,1 52111U 22029Z   24224.91646394  .00006964  00000-0  45508-3 0  9991,2 52111  53.2150 139.3791 0001571  90.9692 269.1480 15.08848846134011,6917.853,95.437,540.805,538.632,0.0
52111.0,STARLINK-3708,PAYLOAD,2024-08-12 04:21:14,15.08875914,0.0001529,53.2169,138.1879,65.755,294.3601,0.0020876,0.00033125,0.0,0 STARLINK-3708,1 52111U 22029Z   24225.18141974  .00033125  00000-0  20876-2 0  9994,2 52111  53.2169 138.1879 0001529  65.7550 294.3601 15.08875914134056,6917.771,95.435,540.693,538.578,0.0
52111.0,STARLINK-3708,PAYLOAD,2024-08-12 10:42:47,15.08857798,0.0001278,53.2154,136.9959,55.3132,304.798,0.00080641,0.00012576,0.0,0 STARLINK-3708,1 52111U 22029Z   24225.44637969  .00012576  00000-0  80641-3 0  9991,2 52111  53.2154 136.9959 0001278  55.3132 304.7980 15.08857798134097,6917.826,95.436,540.575,538.807,0.0
52111.0,STARLINK-3708,PAYLOAD,2024-08-12 21:50:28,15.08889409,0.0001197,53.2157,134.9181,82.8484,277.2644,0.0028733,0.000458,0.0,0 STARLINK-3708,1 52111U 22029Z   24225.91005349  .00045800  00000-0  28733-2 0  9993,2 52111  53.2157 134.9181 0001197  82.8484 277.2644 15.08889409134163,6917.729,95.434,540.422,538.766,0.0
52111.0,STARLINK-3708,PAYLOAD,2024-08-13 04:12:01,15.08791971,0.0002244,53.2154,133.7301,89.7284,270.3965,-0.0029176,-0.00046364,0.0,0 STARLINK-3708,1 52111U 22029Z   24226.17501944 -.00046364  00000-0 -29176-2 0  9994,2 52111  53.2154 133.7301 0002244  89.7284 270.3965 15.08791971134200,6918.027,95.441,541.445,538.34,0.0
52111.0,STARLINK-3708,PAYLOAD,2024-08-13 10:33:36,15.08763875,0.0001654,53.2151,132.535,60.6504,299.4653,-0.0011499,-0.00018504,0.0,0 STARLINK-3708,1 52111U 22029Z   24226.44000594 -.00018504  00000-0 -11499-2 0  9993,2 52111  53.2151 132.5350 0001654  60.6504 299.4653 15.08763875134247,6918.113,95.442,541.122,538.834,0.0
52111.0,STARLINK-3708,PAYLOAD,2024-08-13 16:55:10,15.08754438,8.75e-05,53.2169,131.3486,70.9508,289.1578,0.00044222,6.741e-05,0.0,0 STARLINK-3708,1 52111U 22029Z   24226.70497982  .00006741  00000-0  44222-3 0  9992,2 52111  53.2169 131.3486 0000875  70.9508 289.1578 15.08754438134286,6918.142,95.443,540.612,539.402,0.0
52111.0,STARLINK-3708,PAYLOAD,2024-08-14 02:27:28,15.0886987,0.0001437,53.2151,129.5667,84.9529,275.1627,0.003163,0.00050453,0.0,0 STARLINK-3708,1 52111U 22029Z   24227.10241686  .00050453  00000-0  31630-2 0  9992,2 52111  53.2151 129.5667 0001437  84.9529 275.1627 15.08869870134344,6917.789,95.436,540.648,538.66,0.0
52111.0,STARLINK-3708,PAYLOAD,2024-08-14 10:24:24,15.08880435,0.0001617,53.2155,128.0794,69.7159,290.4007,0.0025629,0.00040782,0.0,0 STARLINK-3708,1 52111U 22029Z   24227.43361177  .00040782  00000-0  25629-2 0  9991,2 52111  53.2155 128.0794 0001617  69.7159 290.4007 15.08880435134390,6917.757,95.435,540.74,538.503,0.0
52111.0,STARLINK-3708,PAYLOAD,2024-08-14 21:32:05,15.08877307,0.0001968,53.2152,125.9985,75.6333,284.4878,0.0007899,0.00012318,0.0,0 STARLINK-3708,1 52111U 22029Z   24227.89728344  .00012318  00000-0  78990-3 0  9998,2 52111  53.2152 125.9985 0001968  75.6333 284.4878 15.08877307134465,6917.766,95.435,540.993,538.27,0.0
52111.0,STARLINK-3708,PAYLOAD,2024-08-15 00:42:51,15.08883926,0.0001696,53.2158,125.4037,74.6221,285.4959,0.0010024,0.0001572,0.0,0 STARLINK-3708,1 52111U 22029Z   24228.02975868  .00015720  00000-0  10024-2 0  9992,2 52111  53.2158 125.4037 0001696  74.6221 285.4959 15.08883926134484,6917.746,95.435,540.784,538.438,0.0
52111.0,STARLINK-3708,PAYLOAD,2024-08-15 10:15:09,15.08870787,0.0001434,53.2148,123.6196,86.0128,274.1028,0.00048743,7.484e-05,0.0,0 STARLINK-3708,1 52111U 22029Z   24228.42719303  .00007484  00000-0  48743-3 0  9994,2 52111  53.2148 123.6196 0001434  86.0128 274.1028 15.08870787134542,6917.786,95.436,540.643,538.659,0.0
52111.0,STARLINK-3708,PAYLOAD,2024-08-15 21:22:51,15.08861707,0.000189,53.2149,121.537,88.6833,271.4375,9.1646e-05,1.172e-05,0.0,0 STARLINK-3708,1 52111U 22029Z   24228.89086924  .00001172  00000-0  91646-4 0  9990,2 52111  53.2149 121.5370 0001890  88.6833 271.4375 15.08861707134616,6917.814,95.436,540.987,538.372,0.0
52111.0,STARLINK-3708,PAYLOAD,2024-08-15 22:58:14,15.08864168,0.0001546,53.2148,121.2399,86.4498,273.6671,0.00015687,2.211e-05,0.0,0 STARLINK-3708,1 52111U 22029Z   24228.95710756  .00002211  00000-0  15687-3 0  9999,2 52111  53.2148 121.2399 0001546  86.4498 273.6671 15.08864168134622,6917.807,95.436,540.741,538.602,0.0
52111.0,STARLINK-3708,PAYLOAD,2024-08-16 00:33:36,15.08877396,0.0001359,53.2143,120.9427,100.6499,259.4646,0.00074297,0.00011568,0.0,0 STARLINK-3708,1 52111U 22029Z   24229.02334276  .00011568  00000-0  74297-3 0  9994,2 52111  53.2143 120.9427 0001359 100.6499 259.4646 15.08877396134639,6917.766,95.435,540.571,538.691,0.0
52111.0,STARLINK-3708,PAYLOAD,2024-08-16 21:13:37,15.08849941,0.0001445,53.215,117.0772,124.9288,235.184,0.00030483,4.568e-05,0.0,0 STARLINK-3708,1 52111U 22029Z   24229.88446441  .00004568  00000-0  30483-3 0  9997,2 52111  53.2150 117.0772 0001445 124.9288 235.1840 15.08849941134764,6917.85,95.437,540.715,538.715,0.0
52111.0,STARLINK-3708,PAYLOAD,2024-08-17 01:59:47,15.08844685,0.0001637,53.215,116.1881,137.4818,222.6301,0.0001363,1.882e-05,0.0,0 STARLINK-3708,1 52111U 22029Z   24230.08318432  .00001882  00000-0  13630-3 0  9990,2 52111  53.2150 116.1881 0001637 137.4818 222.6301 15.08844685134792,6917.866,95.437,540.864,538.599,0.0
52111.0,STARLINK-3708,PAYLOAD,2024-08-17 16:18:15,15.08829624,0.0001713,53.2147,113.5061,109.8267,250.291,8.8968e-05,1.128e-05,0.0,0 STARLINK-3708,1 52111U 22029Z   24230.67935125  .00001128  00000-0  88968-4 0  9999,2 52111  53.2147 113.5061 0001713 109.8267 250.2910 15.08829624134884,6917.912,95.438,540.962,538.592,0.0
